CALSPHERE 1             
1 00900U 64063C   21275.38340667  .00000269  00000-0  27775-3 0  9990
2 00900  90.1693  36.2849 0028983  80.6350 341.5474 13.73592980835239
CALSPHERE 2             
1 00902U 64063E   21275.09969528  .00000011  00000-0  32206-5 0  9995
2 00902  90.1819  39.1821 0018637 171.8314   1.8856 13.52700157624309
LCS 1                   
1 01361U 65034C   21274.71286504  .00000024  00000-0  20129-2 0  9990
2 01361  32.1423 299.6344 0012625  41.1780 318.9669  9.89300084 39603
TEMPSAT 1               
1 01512U 65065E   21275.35361111  .00000035  00000-0  50733-4 0  9999
2 01512  89.9012 220.9579 0071263  36.5533 118.0240 13.33438808730971
CALSPHERE 4A            
1 01520U 65065H   21275.10264757  .00000075  00000-0  12921-3 0  9999
2 01520  90.0055 130.1501 0067992 272.2561 209.2157 13.35854040733572
OPS 5712 (P/L 160)      
1 02826U 67053A   21275.19903309  .00000888  00000-0  24657-3 0  9991
2 02826  69.9280 174.4490 0007905 329.6390  30.4284 14.49680553815792
OPS 5712 (P/L 153)      
1 02874U 67053H   21274.83490233 -.00000039  00000-0  10501-4 0  9994
2 02874  69.9743 199.0717 0010343 269.5460  90.4460 13.96376162766723
SURCAL 150B             
1 02909U 67053J   21275.18249301  .00001334  00000-0  27568-3 0  9998
2 02909  69.9478 176.1972 0004314 344.3070  15.7935 14.62583567826330
RIGIDSPHERE 2 (LCS 4)   
1 05398U 71067E   21275.03973988  .00000296  00000-0  97061-4 0  9994
2 05398  87.6151  94.3240 0064248 155.9230 204.4994 14.34036292627456
COSMOS 2493 (SKRL-756 1)
1 39490U 13078A   21275.41367059  .00000478  00000-0  48311-4 0  9996
2 39490  82.4158 121.3681 0016136 230.1072 129.8727 14.88868902421624
COSMOS 2494 (SKRL-756 2)
1 39491U 13078B   21275.43265765  .00000527  00000-0  51519-4 0  9999
2 39491  82.4155 115.6789 0021200 207.7181 152.2910 14.90270011421902
